MEAN_MOTION;ECCENTRICITY;INCLINATION;RA_OF_ASC_NODE;ARG_OF_PERICENTER;MEAN_ANOMALY;BSTAR;MEAN_MOTION_DOT;MEAN_MOTION_DDOT;TYPE
2.00521844;0.0181106;56.1142;263.9678;229.8895;118.5094;0;6.4E-7;0;Navigation
2.0052182;0.0181099;56.1135;263.9497;229.9022;92.2272;0;6.2E-7;0;Navigation
2.00521771;0.0181154;56.113;263.916;229.9076;354.0863;0;5.5E-7;0;Navigation
2.00521748;0.0181139;56.1127;263.8915;229.9133;86.4827;0;4.8E-7;0;Navigation
2.00521727;0.0181176;56.1126;263.8801;229.9126;297.2023;0;4.4E-7;0;Navigation
2.00521727;0.0181176;56.1126;263.8801;229.9126;297.2023;0;4.4E-7;0;Navigation
2.00521691;0.0181186;56.1122;263.8518;229.9169;99.4496;0;3.4E-7;0;Navigation
2.0052166;0.01812;56.1119;263.8304;229.9205;136.1883;0;2.6E-7;0;Navigation
2.0052166;0.01812;56.1119;263.8304;229.9205;136.1883;0;2.6E-7;0;Navigation
2.00521605;0.0181269;56.1112;263.7722;229.9294;130.1016;0;8.0E-8;0;Navigation
2.00521576;0.0181297;56.1108;263.7343;229.9382;109.6051;0;0;0;Navigation
2.00521564;0.0181314;56.1106;263.7235;229.9395;310.8472;0;-1.0E-8;0;Navigation
2.00521564;0.0181314;56.1106;263.7235;229.9395;310.8472;0;-1.0E-8;0;Navigation
2.00521564;0.0181314;56.1106;263.7235;229.9395;310.8472;0;-1.0E-8;0;Navigation
2.00521512;0.0181379;56.1096;263.6358;229.9565;130.4668;0;3.0E-8;0;Navigation
2.00521501;0.0181395;56.1094;263.6164;229.96;128.4904;0;6.0E-8;0;Navigation
2.00521501;0.0181395;56.1094;263.6164;229.96;128.4904;0;6.0E-8;0;Navigation
2.00521501;0.0181395;56.1094;263.6164;229.96;128.4904;0;6.0E-8;0;Navigation
2.00521474;0.0181427;56.1089;263.5771;229.9681;135.7845;0;1.4E-7;0;Navigation
2.00521457;0.0181469;56.1086;263.5482;229.9719;309.706;0;1.9E-7;0;Navigation
2.00521448;0.0181495;56.1083;263.5254;229.9752;12.2259;0;2.2E-7;0;Navigation
2.00521435;0.0181524;56.1082;263.51;229.9752;297.3706;0;2.4E-7;0;Navigation
2.00521416;0.0181551;56.1078;263.4796;229.9795;139.6526;0;2.5E-7;0;Navigation
2.00521403;0.0181568;56.1076;263.4607;229.9832;129.2908;0;2.5E-7;0;Navigation
2.00521403;0.0181568;56.1076;263.4607;229.9832;129.2908;0;2.5E-7;0;Navigation
2.00521371;0.0181599;56.1071;263.4215;229.9904;133.4442;0;2.2E-7;0;Navigation
2.00521371;0.0181599;56.1071;263.4215;229.9904;133.4442;0;2.2E-7;0;Navigation
2.00521322;0.0181646;56.1064;263.3699;230.0018;8.3818;0;1.5E-7;0;Navigation
2.00521322;0.0181646;56.1064;263.3699;230.0018;8.3818;0;1.5E-7;0;Navigation
2.00521287;0.0181688;56.1061;263.3426;229.9959;153.3837;0;1.0E-7;0;Navigation
2.00521265;0.01817;56.1059;263.3241;229.9986;137.5399;0;7.0E-8;0;Navigation
2.0052122;0.0181731;56.1054;263.2856;230.0039;128.1951;0;2.0E-8;0;Navigation
2.00521174;0.0181757;56.1051;263.2541;230.0153;353.3136;0;-1.0E-8;0;Navigation
2.00521174;0.0181757;56.1051;263.2541;230.0153;353.3136;0;-1.0E-8;0;Navigation
2.00521085;0.0181814;56.1043;263.1891;230.0249;117.1503;0;0;0;Navigation
2.00521039;0.0181859;56.104;263.1591;230.0316;313.0328;0;3.0E-8;0;Navigation
2.00521039;0.0181859;56.104;263.1591;230.0316;313.0328;0;3.0E-8;0;Navigation
2.00521039;0.0181859;56.104;263.1591;230.0316;313.0328;0;3.0E-8;0;Navigation
2.00521039;0.0181859;56.104;263.1591;230.0316;313.0328;0;3.0E-8;0;Navigation
2.00520787;0.0182041;56.1019;263.0036;230.051;311.1148;0;3.0E-7;0;Navigation
2.00520787;0.0182041;56.1019;263.0036;230.051;311.1148;0;3.0E-7;0;Navigation
2.00520787;0.0182041;56.1019;263.0036;230.051;311.1148;0;3.0E-7;0;Navigation
2.00520677;0.0182128;56.1008;262.9358;230.0516;126.0152;0;3.5E-7;0;Navigation
2.00520577;0.0182209;56.1;262.8763;230.0575;148.2976;0;2.9E-7;0;Navigation
2.00520524;0.0182266;56.0994;262.8368;230.061;159.4767;0;1.9E-7;0;Navigation
2.00520503;0.0182281;56.0991;262.8183;230.0653;141.2176;0;1.3E-7;0;Navigation
2.00520503;0.0182281;56.0991;262.8183;230.0653;141.2176;0;1.3E-7;0;Navigation
2.00520422;0.0182338;56.0983;262.7485;230.0925;354.9591;0;-1.2E-7;0;Navigation
2.00520409;0.018236;56.0979;262.7215;230.09;132.3208;0;-2.1E-7;0;Navigation
2.00520409;0.018236;56.0979;262.7215;230.09;132.3208;0;-2.1E-7;0;Navigation
2.00520404;0.0182405;56.0976;262.7145;230.0815;259.3133;0;-2.3E-7;0;Navigation
2.00520396;0.018242;56.0975;262.7032;230.0807;109.4108;0;-2.5E-7;0;Navigation
2.00520396;0.018242;56.0975;262.7032;230.0807;109.4108;0;-2.5E-7;0;Navigation
2.00520345;0.0182498;56.0967;262.6341;230.0996;309.6047;0;-3.4E-7;0;Navigation
2.00520214;0.018278;56.0963;262.595;230.0937;315.2056;0;-3.2E-7;0;Navigation
2.00520226;0.0182829;56.0958;262.5467;230.1025;129.308;0;-2.5E-7;0;Navigation
2.00520199;0.0183027;56.0948;262.4854;230.1092;184.077;0;-1.4E-7;0;Navigation
2.00520185;0.0183062;56.0943;262.4472;230.1168;171.8738;0;-9.0E-8;0;Navigation
2.00520185;0.0183062;56.0943;262.4472;230.1168;171.8738;0;-9.0E-8;0;Navigation
2.0052017;0.0183107;56.0938;262.4122;230.1238;100.4073;0;-8.0E-8;0;Navigation
2.00520168;0.0183114;56.0938;262.4098;230.1238;143.9818;0;-8.0E-8;0;Navigation
2.00520146;0.0183171;56.0933;262.3718;230.1308;128.1423;0;-9.0E-8;0;Navigation
2.00520146;0.0183171;56.0933;262.3718;230.1308;128.1423;0;-9.0E-8;0;Navigation
2.00520146;0.0183171;56.0933;262.3718;230.1308;128.1423;0;-9.0E-8;0;Navigation
2.00520072;0.0183337;56.092;262.2916;230.1414;174.0988;0;-2.1E-7;0;Navigation
2.00520039;0.0183357;56.0915;262.2546;230.1478;140.057;0;-2.7E-7;0;Navigation
2.00520025;0.0183393;56.0914;262.2452;230.1496;312.9272;0;-2.8E-7;0;Navigation
2.0051999;0.0183449;56.091;262.2117;230.1524;214.4857;0;-3.2E-7;0;Navigation
2.00519981;0.0183463;56.0908;262.2033;230.1563;10.1951;0;-3.3E-7;0;Navigation
2.00519973;0.0183462;56.0907;262.1969;230.1563;127.0316;0;-3.3E-7;0;Navigation
2.00519973;0.0183462;56.0907;262.1969;230.1563;127.0316;0;-3.3E-7;0;Navigation
2.00519876;0.0183569;56.0896;262.1178;230.1681;153.8021;0;-3.1E-7;0;Navigation
2.00519854;0.0183576;56.0894;262.0999;230.1724;124.3107;0;-2.9E-7;0;Navigation
2.00519804;0.0183631;56.0889;262.0616;230.1797;115.5123;0;-2.3E-7;0;Navigation
2.00519751;0.0183682;56.0883;262.0222;230.1874;125.7829;0;-1.5E-7;0;Navigation
2.00519751;0.0183682;56.0883;262.0222;230.1874;125.7829;0;-1.5E-7;0;Navigation
2.00519696;0.0183724;56.0877;261.983;230.1947;131.3286;0;-6.0E-8;0;Navigation
2.00519677;0.0183742;56.0875;261.969;230.1992;30.8835;0;-3.0E-8;0;Navigation
2.00519638;0.0183791;56.0872;261.9446;230.203;123.2309;0;1.0E-8;0;Navigation
2.00519638;0.0183791;56.0872;261.9446;230.203;123.2309;0;1.0E-8;0;Navigation
2.00519553;0.0183938;56.0866;261.8956;230.2114;310.5555;0;7.0E-8;0;Navigation
2.0051951;0.0184002;56.0862;261.8655;230.2153;149.1614;0;8.0E-8;0;Navigation
2.0051951;0.0184002;56.0862;261.8655;230.2153;149.1614;0;8.0E-8;0;Navigation
2.00519458;0.0184056;56.0856;261.8258;230.2211;164.7023;0;6.0E-8;0;Navigation
2.00519415;0.0184111;56.085;261.7893;230.229;121.9956;0;-1.0E-8;0;Navigation
2.00519409;0.0184118;56.085;261.7865;230.2288;174.858;0;-2.0E-8;0;Navigation
2.00519366;0.0184182;56.0844;261.7495;230.2382;139.979;0;-1.2E-7;0;Navigation
2.0051935;0.0184207;56.0841;261.7313;230.2425;115.6682;0;-1.8E-7;0;Navigation
2.00519329;0.0184236;56.0838;261.71;230.2464;150.5677;0;-2.5E-7;0;Navigation
2.00519298;0.0184291;56.0832;261.6705;230.2554;161.3008;0;-3.8E-7;0;Navigation
2.00519288;0.018432;56.0831;261.6587;230.2614;21.5456;0;-4.1E-7;0;Navigation
2.00519288;0.018432;56.0831;261.6587;230.2614;21.5456;0;-4.1E-7;0;Navigation
2.00519273;0.0184349;56.0827;261.6343;230.2661;112.4588;0;-4.7E-7;0;Navigation
2.00519248;0.0184411;56.0822;261.5944;230.2763;131.1366;0;-5.3E-7;0;Navigation
2.00519248;0.0184411;56.0822;261.5944;230.2763;131.1366;0;-5.3E-7;0;Navigation
2.00519222;0.0184484;56.0815;261.546;230.2885;308.1656;0;-5.2E-7;0;Navigation
2.00519222;0.0184484;56.0815;261.546;230.2885;308.1656;0;-5.2E-7;0;Navigation
2.00519222;0.0184484;56.0815;261.546;230.2885;308.1656;0;-5.2E-7;0;Navigation
2.00519195;0.018462;56.0803;261.4585;230.3077;127.8095;0;-3.7E-7;0;Navigation
2.00519195;0.018462;56.0803;261.4585;230.3077;127.8095;0;-3.7E-7;0;Navigation
2.00519195;0.018462;56.0803;261.4585;230.3077;127.8095;0;-3.7E-7;0;Navigation
2.0051916;0.0184806;56.0789;261.357;230.3305;207.8788;0;-2.2E-7;0;Navigation
2.00519154;0.0184846;56.0785;261.3269;230.3383;45.6537;0;-2.2E-7;0;Navigation
2.00519129;0.0184912;56.0778;261.281;230.3482;176.7045;0;-2.6E-7;0;Navigation
2.0051911;0.0184962;56.0773;261.2441;230.3557;141.7849;0;-3.1E-7;0;Navigation
2.00519105;0.0184966;56.0773;261.2416;230.3558;187.585;0;-3.2E-7;0;Navigation
2.00519105;0.0184966;56.0773;261.2416;230.3558;187.585;0;-3.2E-7;0;Navigation
2.0051908;0.0185015;56.0767;261.2022;230.3625;198.0778;0;-3.7E-7;0;Navigation
2.0051908;0.0185015;56.0767;261.2022;230.3625;198.0778;0;-3.7E-7;0;Navigation
2.00519046;0.0185093;56.0761;261.1533;230.3727;24.0551;0;-4.3E-7;0;Navigation
2.00519021;0.0185129;56.0757;261.126;230.375;170.5483;0;-4.4E-7;0;Navigation
2.00519014;0.0185144;56.0755;261.1137;230.3783;36.9426;0;-4.4E-7;0;Navigation
2.00518985;0.0185198;56.0751;261.0863;230.3831;185.9639;0;-4.2E-7;0;Navigation
2.00518955;0.0185248;56.0747;261.0559;230.3912;28.6506;0;-3.9E-7;0;Navigation
2.00518907;0.0185302;56.0741;261.0099;230.399;161.5011;0;-3.1E-7;0;Navigation
2.00518907;0.0185302;56.0741;261.0099;230.399;161.5011;0;-3.1E-7;0;Navigation
2.00518907;0.0185302;56.0741;261.0099;230.399;161.5011;0;-3.1E-7;0;Navigation
2.00518764;0.0185449;56.0725;260.8941;230.4241;148.1699;0;-3.0E-8;0;Navigation
2.00518764;0.0185449;56.0725;260.8941;230.4241;148.1699;0;-3.0E-8;0;Navigation
2.00518714;0.0185497;56.072;260.8546;230.4321;158.5633;0;4.0E-8;0;Navigation
2.0051867;0.0185546;56.0714;260.8174;230.4407;127.2608;0;9.0E-8;0;Navigation
2.0051867;0.0185546;56.0714;260.8174;230.4407;127.2608;0;9.0E-8;0;Navigation
2.0051867;0.0185546;56.0714;260.8174;230.4407;127.2608;0;9.0E-8;0;Navigation
2.00518538;0.0185731;56.0698;260.6994;230.4699;151.8501;0;-3.0E-8;0;Navigation
2.00518538;0.0185731;56.0698;260.6994;230.4699;151.8501;0;-3.0E-8;0;Navigation
2.005185;0.0185796;56.0692;260.6598;230.4806;165.3737;0;-1.5E-7;0;Navigation
2.0051846;0.0185889;56.0687;260.6203;230.495;175.5937;0;-2.7E-7;0;Navigation
